ONEWEB-0228             
1 48780U 21045P   23288.48629357 -.00000060  00000+0 -19363-3 0  9998
2 48780  87.8939  93.4429 0001722  84.8756 275.2571 13.15547848117176
